NORAD_CAT_ID,OBJECT_NAME,OBJECT_TYPE,EPOCH,MEAN_MOTION,ECCENTRICITY,INCLINATION,RA_OF_ASC_NODE,ARG_OF_PERICENTER,MEAN_ANOMALY,BSTAR,MEAN_MOTION_DOT,MEAN_MOTION_DDOT,TLE_LINE0,TLE_LINE1,TLE_LINE2,SEMIMAJOR_AXIS,PERIOD,APOGEE,PERIGEE,DECAYED
49447.0,STARLINK-3115,PAYLOAD,2023-04-17 11:53:35,15.08839126,0.0001281,53.2152,285.0511,80.4672,279.6465,0.00011894,1.606e-05,0.0,0 STARLINK-3115,1 49447U 21104AR  23107.49554544  .00001606  00000-0  11894-3 0  9998,2 49447  53.2152 285.0511 0001281  80.4672 279.6465 15.08839126 80245,6917.883,95.438,540.634,538.862,0.0
49447.0,STARLINK-3115,PAYLOAD,2023-04-17 16:39:44,15.08845456,0.0001228,53.2152,284.159,81.9143,278.1988,0.00026353,3.909e-05,0.0,0 STARLINK-3115,1 49447U 21104AR  23107.69426353  .00003909  00000-0  26353-3 0  9990,2 49447  53.2152 284.1590 0001228  81.9143 278.1988 15.08845456 79203,6917.864,95.437,540.578,538.879,0.0
49447.0,STARLINK-3115,PAYLOAD,2023-04-17 23:01:16,15.088555,0.0001357,53.2151,282.9681,87.9303,272.1844,0.00079295,0.0001236,0.0,0 STARLINK-3115,1 49447U 21104AR  23107.95922110  .00012360  00000-0  79295-3 0  9995,2 49447  53.2151 282.9681 0001357  87.9303 272.1844 15.08855500 79246,6917.833,95.437,540.637,538.759,0.0
49447.0,STARLINK-3115,PAYLOAD,2023-04-18 21:16:40,15.08849165,0.0001243,53.2154,278.8038,96.634,263.4794,0.0005238,8.06e-05,0.0,0 STARLINK-3115,1 49447U 21104AR  23108.88658281  .00008060  00000-0  52380-3 0  9991,2 49447  53.2154 278.8038 0001243  96.6340 263.4794 15.08849165 80453,6917.852,95.437,540.577,538.857,0.0
49447.0,STARLINK-3115,PAYLOAD,2023-04-19 11:35:09,15.08842067,0.0001707,53.217,276.1304,116.1561,243.9607,0.0001373,1.898e-05,0.0,0 STARLINK-3115,1 49447U 21104AR  23109.48274528  .00001898  00000-0  13730-3 0  9994,2 49447  53.2170 276.1304 0001707 116.1561 243.9607 15.08842067 80546,6917.874,95.437,540.92,538.558,0.0
49447.0,STARLINK-3115,PAYLOAD,2023-04-19 17:56:41,15.08851421,0.0001492,53.2151,274.9401,98.3036,261.8126,0.00099854,0.00015644,0.0,0 STARLINK-3115,1 49447U 21104AR  23109.74770485  .00015644  00000-0  99854-3 0  9991,2 49447  53.2151 274.9401 0001492  98.3036 261.8126 15.08851421 79512,6917.845,95.437,540.743,538.678,0.0
49447.0,STARLINK-3115,PAYLOAD,2023-04-20 09:50:33,15.08845635,0.0001121,53.2154,271.9677,99.4064,260.7055,0.00025567,3.784e-05,0.0,0 STARLINK-3115,1 49447U 21104AR  23110.41010423  .00003784  00000-0  25567-3 0  9998,2 49447  53.2154 271.9677 0001121  99.4064 260.7055 15.08845635 79619,6917.863,95.437,540.504,538.953,0.0
49447.0,STARLINK-3115,PAYLOAD,2023-04-20 17:47:28,15.0883888,0.0001099,53.2154,270.4798,100.1327,259.9789,0.00018107,2.595e-05,0.0,0 STARLINK-3115,1 49447U 21104AR  23110.74130521  .00002595  00000-0  18107-3 0  9997,2 49447  53.2154 270.4798 0001099 100.1327 259.9789 15.08838880 80736,6917.884,95.438,540.509,538.989,0.0
49447.0,STARLINK-3115,PAYLOAD,2023-04-20 20:58:14,15.08846911,9.1e-05,53.2165,269.885,101.9975,258.1119,0.00026641,3.955e-05,0.0,0 STARLINK-3115,1 49447U 21104AR  23110.87378251  .00003955  00000-0  26641-3 0  9998,2 49447  53.2165 269.8850 0000910 101.9975 258.1119 15.08846911 79682,6917.859,95.437,540.354,539.095,0.0
49447.0,STARLINK-3115,PAYLOAD,2023-04-21 03:19:47,15.08840518,7.86e-05,53.216,268.6937,98.1061,262.002,0.00011551,1.551e-05,0.0,0 STARLINK-3115,1 49447U 21104AR  23111.13874467  .00001551  00000-0  11551-3 0  9992,2 49447  53.2160 268.6937 0000786  98.1061 262.0020 15.08840518 79721,6917.879,95.438,540.288,539.2,0.0
49447.0,STARLINK-3115,PAYLOAD,2023-04-21 19:13:39,15.08840111,0.0001078,53.2154,265.7205,94.7572,265.3543,7.662e-05,9.32e-06,0.0,0 STARLINK-3115,1 49447U 21104AR  23111.80114726  .00000932  00000-0  76620-4 0  9992,2 49447  53.2154 265.7205 0001078  94.7572 265.3543 15.08840111 80899,6917.88,95.438,540.491,538.999,0.0
49447.0,STARLINK-3115,PAYLOAD,2023-04-21 22:24:24,15.08855324,4.79e-05,53.2153,265.1238,162.8859,197.2149,0.00037193,5.639e-05,0.0,0 STARLINK-3115,1 49447U 21104AR  23111.93361816  .00005639  00000-0  37193-3 0  9990,2 49447  53.2153 265.1238 0000479 162.8859 197.2149 15.08855324 79847,6917.834,95.437,540.03,539.367,0.0
49447.0,STARLINK-3115,PAYLOAD,2023-04-22 22:15:11,15.08852791,4.75e-05,53.2159,260.6656,257.7895,102.3044,0.00022775,3.34e-05,0.0,0 STARLINK-3115,1 49447U 21104AR  23112.92721504  .00003340  00000-0  22775-3 0  9991,2 49447  53.2159 260.6656 0000475 257.7895 102.3044 15.08852791 81060,6917.841,95.437,540.035,539.378,0.0
49447.0,STARLINK-3115,PAYLOAD,2023-04-23 12:33:40,15.0883099,7.13e-05,53.215,257.99,93.6449,266.4625,-5.8248e-05,-1.214e-05,0.0,0 STARLINK-3115,1 49447U 21104AR  23113.52339046 -.00001214  00000-0 -58248-4 0  9999,2 49447  53.2150 257.9900 0000713  93.6449 266.4625 15.08830990 81153,6917.908,95.438,540.266,539.28,0.0
49447.0,STARLINK-3115,PAYLOAD,2023-04-23 18:55:13,15.08841325,0.0001448,53.2138,256.8028,45.8042,314.3069,0.00013213,1.816e-05,0.0,0 STARLINK-3115,1 49447U 21104AR  23113.78834990  .00001816  00000-0  13213-3 0  9993,2 49447  53.2138 256.8028 0001448  45.8042 314.3069 15.08841325 80127,6917.876,95.437,540.743,538.74,0.0
49447.0,STARLINK-3115,PAYLOAD,2023-04-24 02:52:08,15.08849029,9.48e-05,53.2158,255.3145,68.0266,292.0826,0.00023819,3.506e-05,0.0,0 STARLINK-3115,1 49447U 21104AR  23114.11954618  .00003506  00000-0  23819-3 0  9992,2 49447  53.2158 255.3145 0000948  68.0266 292.0826 15.08849029 81248,6917.853,95.437,540.374,539.062,0.0
49447.0,STARLINK-3115,PAYLOAD,2023-04-25 09:04:28,15.08808968,0.0001095,53.2146,249.6672,65.2632,294.8474,-0.0010458,-0.00016879,0.0,0 STARLINK-3115,1 49447U 21104AR  23115.37810210 -.00016879  00000-0 -10458-2 0  9993,2 49447  53.2146 249.6672 0001095  65.2632 294.8474 15.08808968 80364,6917.975,95.44,540.598,539.083,0.0
49447.0,STARLINK-3115,PAYLOAD,2023-04-26 12:06:03,15.08824078,5.44e-05,53.2173,244.6122,71.0406,289.0645,0.00090592,0.00014153,0.0,0 STARLINK-3115,1 49447U 21104AR  23116.50421004  .00014153  00000-0  90592-3 0  9997,2 49447  53.2173 244.6122 0000544  71.0406 289.0645 15.08824078 80536,6917.929,95.439,540.17,539.418,0.0
49447.0,STARLINK-3115,PAYLOAD,2023-04-26 18:27:35,15.08841982,7.43e-05,53.2181,243.4211,135.2471,224.8581,0.001135,0.00017823,0.0,0 STARLINK-3115,1 49447U 21104AR  23116.76916582  .00017823  00000-0  11350-2 0  9996,2 49447  53.2181 243.4211 0000743 135.2471 224.8581 15.08841982 80570,6917.874,95.437,540.253,539.225,0.0
49447.0,STARLINK-3115,PAYLOAD,2023-04-27 11:56:50,15.08845886,9.14e-05,53.2189,240.1519,122.0795,238.0286,0.00061844,9.57e-05,0.0,0 STARLINK-3115,1 49447U 21104AR  23117.49780539  .00009570  00000-0  61844-3 0  9992,2 49447  53.2189 240.1519 0000914 122.0795 238.0286 15.08845886 80684,6917.862,95.437,540.36,539.095,0.0
49447.0,STARLINK-3115,PAYLOAD,2023-04-27 18:18:22,15.08857681,7.25e-05,53.2176,238.9616,118.6923,241.4142,0.00063645,9.861e-05,0.0,0 STARLINK-3115,1 49447U 21104AR  23117.76275892  .00009861  00000-0  63645-3 0  9997,2 49447  53.2176 238.9616 0000725 118.6923 241.4142 15.08857681 81795,6917.826,95.436,540.193,539.19,0.0
49447.0,STARLINK-3115,PAYLOAD,2023-04-28 00:39:54,15.08849788,7.9e-05,53.2173,237.7732,97.634,262.4742,8.0796e-05,9.99e-06,0.0,0 STARLINK-3115,1 49447U 21104AR  23118.02771751  .00000999  00000-0  80796-4 0  9992,2 49447  53.2173 237.7732 0000790  97.6340 262.4742 15.08849788 81832,6917.85,95.437,540.262,539.169,0.0
49447.0,STARLINK-3115,PAYLOAD,2023-04-28 11:47:36,15.08846779,8.02e-05,53.218,235.6906,119.1133,240.9939,-9.9523e-05,-1.871e-05,0.0,0 STARLINK-3115,1 49447U 21104AR  23118.49139410 -.00001871  00000-0 -99523-4 0  9993,2 49447  53.2180 235.6906 0000802 119.1133 240.9939 15.08846779 80839,6917.86,95.437,540.279,539.17,0.0
49447.0,STARLINK-3115,PAYLOAD,2023-04-29 00:30:41,15.08841431,8.21e-05,53.2179,233.3113,107.758,252.3502,-6.1381e-05,-1.264e-05,0.0,0 STARLINK-3115,1 49447U 21104AR  23119.02131679 -.00001264  00000-0 -61381-4 0  9999,2 49447  53.2179 233.3113 0000821 107.7580 252.3502 15.08841431 81982,6917.876,95.437,540.309,539.173,0.0
49447.0,STARLINK-3115,PAYLOAD,2023-04-29 11:38:23,15.08845535,5.99e-05,53.217,231.2284,91.4107,268.6954,-2.911e-05,-7.51e-06,0.0,0 STARLINK-3115,1 49447U 21104AR  23119.48499376 -.00000751  00000-0 -29110-4 0  9994,2 49447  53.2170 231.2284 0000599  91.4107 268.6954 15.08845535 80984,6917.863,95.437,540.143,539.314,0.0
49447.0,STARLINK-3115,PAYLOAD,2023-04-29 16:24:32,15.08848189,6.02e-05,53.2162,230.3363,81.7983,278.3077,0.00011296,1.511e-05,0.0,0 STARLINK-3115,1 49447U 21104AR  23119.68371145  .00001511  00000-0  11296-3 0  9997,2 49447  53.2162 230.3363 0000602  81.7983 278.3077 15.08848189 82087,6917.855,95.437,540.137,539.304,0.0
49447.0,STARLINK-3115,PAYLOAD,2023-04-30 13:04:34,15.08837418,8.47e-05,53.2164,226.4725,55.685,304.4222,4.8703e-05,4.87e-06,0.0,0 STARLINK-3115,1 49447U 21104AR  23120.54483811  .00000487  00000-0  48703-4 0  9993,2 49447  53.2164 226.4725 0000847  55.6850 304.4222 15.08837418 81143,6917.888,95.438,540.339,539.167,0.0
49447.0,STARLINK-3115,PAYLOAD,2023-04-30 14:39:56,15.08842729,6.75e-05,53.2165,226.1735,70.3959,289.7106,8.8535e-05,1.122e-05,0.0,0 STARLINK-3115,1 49447U 21104AR  23120.61107507  .00001122  00000-0  88535-4 0  9990,2 49447  53.2165 226.1735 0000675  70.3959 289.7106 15.08842729 82222,6917.872,95.437,540.204,539.27,0.0
49447.0,STARLINK-3115,PAYLOAD,2023-04-30 19:26:05,15.08850149,4.98e-05,53.2158,225.2801,85.6043,274.5006,0.00016776,2.384e-05,0.0,0 STARLINK-3115,1 49447U 21104AR  23120.80979003  .00002384  00000-0  16776-3 0  9997,2 49447  53.2158 225.2801 0000498  85.6043 274.5006 15.08850149 82253,6917.849,95.437,540.059,539.37,0.0
49447.0,STARLINK-3115,PAYLOAD,2023-05-01 12:55:20,15.08840207,6.17e-05,53.2154,222.01,76.2467,283.8594,1.0883e-05,-1.14e-06,0.0,0 STARLINK-3115,1 49447U 21104AR  23121.53843733 -.00000114  00000-0  10883-4 0  9992,2 49447  53.2154 222.0100 0000617  76.2467 283.8594 15.08840207 82366,6917.88,95.438,540.172,539.318,0.0
